0 FENGYUN 1C DEB
1 30212U 99025VV  13281.45282530 -.00000102  00000-0 -40861-4 0  1739
2 30212 099.3407 357.4309 0099623 033.5949 028.9599 13.93744445342213
0 FENGYUN 1C DEB
1 30212U 99025VV  13282.47061293 -.00000078  00000-0 -23431-4 0  1740
2 30212 099.3407 358.4591 0099563 030.8349 095.6954 13.93744648342350
0 FENGYUN 1C DEB
1 30212U 99025VV  13283.47362317 -.00000016  00000-0  21770-4 0  1758
2 30212 099.3407 359.4723 0099514 028.1086 088.2948 13.93744516342492
0 FENGYUN 1C DEB
1 30212U 99025VV  13285.77148654  .00000170  00000-0  15734-3 0  1773
2 30212 099.3408 001.7938 0099430 021.8582 097.8189 13.93743445342815
0 FENGYUN 1C DEB
1 30212U 99025VV  13287.19395501  .00000295  00000-0  24823-3 0  1784
2 30212 099.3406 003.2309 0099397 017.9897 035.0479 13.93743109343004
0 FENGYUN 1C DEB
1 30212U 99025VV  13288.19905966  .00000393  00000-0  32027-3 0  1792
2 30212 099.3404 004.2463 0099363 015.2553 038.1551 13.93743841343140
0 FENGYUN 1C DEB
1 30212U 99025VV  13289.19952218  .00000377  00000-0  30815-3 0  1802
2 30212 099.3403 005.2571 0099338 012.5434 017.9610 13.93744845343281
0 FENGYUN 1C DEB
1 30212U 99025VV  13290.20351517  .00000352  00000-0  29027-3 0  1818
2 30212 099.3400 006.2714 0099298 009.8082 015.4966 13.93746123343425
0 FENGYUN 1C DEB
1 30212U 99025VV  13291.21516575  .00000274  00000-0  23344-3 0  1827
2 30212 099.3398 007.2934 0099275 007.0461 051.4619 13.93747510343563
0 FENGYUN 1C DEB
1 30212U 99025VV  13292.22031609  .00000203  00000-0  18150-3 0  1831
2 30212 099.3397 008.3088 0099242 004.2980 054.8199 13.93748784343703
0 FENGYUN 1C DEB
1 30212U 99025VV  13293.44070896  .00000145  00000-0  13928-3 0  1841
2 30212 099.3395 009.5416 0099176 000.9520 058.1775 13.93750257343871
0 FENGYUN 1C DEB
1 30212U 99025VV  13295.16356497  .00000117  00000-0  11887-3 0  1858
2 30212 099.3394 011.2820 0099100 356.2240 062.6742 13.93751453344113
